STARLINK-30069          
1 56834U 23079M   26067.48212902 -.00002416  00000+0 -80472-4 0  9995
2 56834  42.9986 110.4464 0000469 272.6695  87.4103 15.26726881152740
STARLINK-31388          
1 59565U 24076B   26068.18930134 -.00003158  00000+0 -10530-3 0  9990
2 59565  43.0037  12.0667 0000819 304.7804  55.2971 15.27581070106423
